OBJECT_NAME,OBJECT_ID,EPOCH,MEAN_MOTION,ECCENTRICITY,INCLINATION,RA_OF_ASC_NODE,ARG_OF_PERICENTER,MEAN_ANOMALY,EPHEMERIS_TYPE,CLASSIFICATION_TYPE,NORAD_CAT_ID,ELEMENT_SET_NO,REV_AT_EPOCH,BSTAR,MEAN_MOTION_DOT,MEAN_MOTION_DDOT
STARLINK-1597,2020-057AB,2020-09-09T06:00:00.999648,15.60190779,.0001276,53.0000,333.9853,28.4859,117.8893,0,U,46142,999,177,-.15179E-1,-1.138013E-2,0
STARLINK-1599,2020-057AC,2020-09-09T06:00:00.999648,15.66243954,.0001111,52.9992,333.5944,51.4887,270.1335,0,U,46143,999,177,.21701E-3,2.2323E-4,0
STARLINK-1606,2020-057AD,2020-09-09T12:00:00.999648,15.66290085,.0001486,53.0000,332.3970,57.1553,222.0760,0,U,46144,999,412,-.20036E-4,-2.672E-5,0
STARLINK-1607,2020-057AE,2020-09-09T12:00:00.999648,15.61425228,.0001366,53.0004,332.7192,54.8623,82.0939,0,U,46145,999,412,-.86984E-3,-7.5463E-4,0
STARLINK-1608,2020-057AF,2020-09-09T12:00:00.999648,15.62777372,.0001322,53.0012,332.7324,58.2102,57.0411,0,U,46146,999,412,.17662E-4,1.084E-5,0
STARLINK-1611,2020-057AG,2020-09-09T12:00:00.999648,15.62818226,.0002373,53.0017,332.7258,320.2418,161.4177,0,U,46147,999,412,-.12927E-2,-1.1752E-3,0
STARLINK-1616,2020-057AH,2020-09-09T06:00:00.999648,15.66272309,.0001175,53.0006,333.6379,61.3229,238.6405,0,U,46148,999,182,.22575E-3,2.3274E-4,0
STARLINK-1620,2020-057AJ,2020-09-09T12:00:00.999648,15.65164530,.0001856,52.9986,332.3604,25.9357,272.3316,0,U,46149,999,412,.45485E-1,5.336729E-2,0
STARLINK-1629,2020-057AK,2020-09-09T12:00:00.999648,15.62749410,.0005674,53.0012,332.7271,296.7255,179.9747,0,U,46150,999,412,.20216E-4,1.312E-5,0
STARLINK-1631,2020-057AL,2020-09-09T12:00:00.999648,15.72344019,.0002138,52.9980,331.4759,63.7232,298.0291,0,U,46151,999,413,.84388E-5,5.28E-6,0
STARLINK-1634,2020-057AM,2020-09-09T12:00:00.999648,15.62750069,.0001360,52.9986,332.7534,56.4442,48.8099,0,U,46152,999,412,.85897E-5,2.52E-6,0
STARLINK-1636,2020-057AN,2020-09-09T12:00:00.999648,15.72215464,.0001191,52.9973,331.5018,77.4562,270.6503,0,U,46153,999,413,-.27019E-4,-4.246E-5,0
STARLINK-1642,2020-057AP,2020-09-09T12:00:00.999648,15.72221371,.0000819,52.9974,331.4883,47.3812,306.8853,0,U,46154,999,413,-.28311E-4,-4.42E-5,0
STARLINK-1667,2020-057AQ,2020-09-09T06:00:00.999648,15.66242588,.0001149,52.9990,333.5630,62.6904,274.4793,0,U,46155,999,177,.21929E-3,2.2563E-4,0
STARLINK-1545,2020-057AR,2020-09-09T12:00:00.999648,15.66248654,.0001489,52.9997,332.4080,57.3913,217.3226,0,U,46156,999,412,-.31299E-4,-3.852E-5,0
STARLINK-1587,2020-057AS,2020-09-09T12:00:00.999648,15.66267678,.0001329,52.9993,332.3375,38.8440,269.8273,0,U,46157,999,412,-.29138E-4,-3.627E-5,0
STARLINK-1589,2020-057AT,2020-09-09T06:00:00.999648,15.62328449,.0001517,53.0013,333.9926,53.1982,90.6490,0,U,46158,999,177,.15015E-2,1.37001E-3,0
STARLINK-1595,2020-057AU,2020-09-09T06:00:00.999648,15.61133711,.0001078,53.0028,334.0188,6.4343,122.7212,0,U,46159,999,177,-.13840E-1,-1.081724E-2,0
STARLINK-1598,2020-057AV,2020-09-09T06:00:00.999648,15.66253278,.0000899,52.9997,333.6056,32.3480,287.7360,0,U,46160,999,177,.21562E-3,2.2184E-4,0
STARLINK-1600,2020-057AW,2020-09-09T06:00:00.999648,15.66240563,.0001497,52.9977,333.6245,74.0433,233.2309,0,U,46161,999,182,.23181E-3,2.3885E-4,0
STARLINK-1603,2020-057AX,2020-09-09T06:00:00.999648,15.66255955,.0000945,52.9996,333.5938,34.8007,288.2430,0,U,46162,999,177,.21680E-3,2.2312E-4,0
STARLINK-1610,2020-057AY,2020-09-09T06:00:00.999648,15.66287859,.0001373,52.9997,333.5886,71.8162,256.5215,0,U,46163,999,177,.21939E-3,2.2615E-4,0
STARLINK-1612,2020-057AZ,2020-09-09T06:00:00.999648,15.66258015,.0001262,52.9993,333.5792,328.7259,2.0245,0,U,46164,999,177,.21763E-3,2.2401E-4,0
STARLINK-1613,2020-057BA,2020-09-09T12:00:00.999648,15.62827921,.0001424,53.0013,332.7499,57.3139,50.4330,0,U,46165,999,412,-.11578E-2,-1.05492E-3,0
STARLINK-1615,2020-057BB,2020-09-09T06:00:00.999648,15.60311524,.0001520,52.9978,333.9961,48.9298,96.7426,0,U,46166,999,182,-.14512E-1,-1.097275E-2,0
STARLINK-1626,2020-057BC,2020-09-09T06:00:00.999648,15.62756437,.0001608,52.9994,333.9637,314.5553,189.7265,0,U,46167,999,177,.30662E-3,2.764E-4,0
STARLINK-1627,2020-057BD,2020-09-09T12:00:00.999648,15.62802400,.0001920,52.9994,332.7317,307.2224,167.6732,0,U,46168,999,412,-.12034E-2,-1.09471E-3,0
STARLINK-1628,2020-057BE,2020-09-09T12:00:00.999648,15.62759837,.0001304,53.0011,332.7227,50.9819,63.0900,0,U,46169,999,412,.12180E-4,5.81E-6,0
STARLINK-1632,2020-057BF,2020-09-09T06:00:00.999648,15.62743284,.0001181,52.9998,333.9554,57.1276,93.0302,0,U,46170,999,177,-.41591E-3,-3.8422E-4,0
STARLINK-1633,2020-057BG,2020-09-09T06:00:00.999648,15.66246831,.0001440,52.9980,333.6341,67.2860,235.0450,0,U,46171,999,182,.23590E-3,2.4324E-4,0
