STARLINK-1597           
1 46142U 20057AB  20253.25001157 -.01138013  00000-0 -15179-1 0  9997
2 46142  53.0000 333.9853 0001276  28.4859 117.8893 15.60190779  1770
STARLINK-1599           
1 46143U 20057AC  20253.25001157  .00022323  00000-0  21701-3 0  9991
2 46143  52.9992 333.5944 0001111  51.4887 270.1335 15.66243954  1775
STARLINK-1606           
1 46144U 20057AD  20253.50001157 -.00002672  00000-0 -20036-4 0  9998
2 46144  53.0000 332.3970 0001486  57.1553 222.0760 15.66290085  4129
STARLINK-1607           
1 46145U 20057AE  20253.50001157 -.00075463  00000-0 -86984-3 0  9990
2 46145  53.0004 332.7192 0001366  54.8623  82.0939 15.61425228  4129
STARLINK-1608           
1 46146U 20057AF  20253.50001157  .00001084  00000-0  17662-4 0  9995
2 46146  53.0012 332.7324 0001322  58.2102  57.0411 15.62777372  4126
STARLINK-1611           
1 46147U 20057AG  20253.50001157 -.00117520  00000-0 -12927-2 0  9998
2 46147  53.0017 332.7258 0002373 320.2418 161.4177 15.62818226  4120
STARLINK-1616           
1 46148U 20057AH  20253.25001157  .00023274  00000-0  22575-3 0  9992
2 46148  53.0006 333.6379 0001175  61.3229 238.6405 15.66272309  1820
STARLINK-1620           
1 46149U 20057AJ  20253.50001157  .05336729  00000-0  45485-1 0  9991
2 46149  52.9986 332.3604 0001856  25.9357 272.3316 15.65164530  4124
STARLINK-1629           
1 46150U 20057AK  20253.50001157  .00001312  00000-0  20216-4 0  9993
2 46150  53.0012 332.7271 0005674 296.7255 179.9747 15.62749410  4122
STARLINK-1631           
1 46151U 20057AL  20253.50001157  .00000528  00000-0  84388-5 0  9993
2 46151  52.9980 331.4759 0002138  63.7232 298.0291 15.72344019  4136
STARLINK-1634           
1 46152U 20057AM  20253.50001157  .00000252  00000-0  85897-5 0  9994
2 46152  52.9986 332.7534 0001360  56.4442  48.8099 15.62750069  4127
STARLINK-1636           
1 46153U 20057AN  20253.50001157 -.00004246  00000-0 -27019-4 0  9995
2 46153  52.9973 331.5018 0001191  77.4562 270.6503 15.72215464  4138
STARLINK-1642           
1 46154U 20057AP  20253.50001157 -.00004420  00000-0 -28311-4 0  9996
2 46154  52.9974 331.4883 0000819  47.3812 306.8853 15.72221371  4133
STARLINK-1667           
1 46155U 20057AQ  20253.25001157  .00022563  00000-0  21929-3 0  9992
2 46155  52.9990 333.5630 0001149  62.6904 274.4793 15.66242588  1770
STARLINK-1545           
1 46156U 20057AR  20253.50001157 -.00003852  00000-0 -31299-4 0  9995
2 46156  52.9997 332.4080 0001489  57.3913 217.3226 15.66248654  4122
STARLINK-1587           
1 46157U 20057AS  20253.50001157 -.00003627  00000-0 -29138-4 0  9995
2 46157  52.9993 332.3375 0001329  38.8440 269.8273 15.66267678  4128
STARLINK-1589           
1 46158U 20057AT  20253.25001157  .00137001  00000-0  15015-2 0  9997
2 46158  53.0013 333.9926 0001517  53.1982  90.6490 15.62328449  1772
STARLINK-1595           
1 46159U 20057AU  20253.25001157 -.01081724  00000-0 -13840-1 0  9994
2 46159  53.0028 334.0188 0001078   6.4343 122.7212 15.61133711  1779
STARLINK-1598           
1 46160U 20057AV  20253.25001157  .00022184  00000-0  21562-3 0  9990
2 46160  52.9997 333.6056 0000899  32.3480 287.7360 15.66253278  1775
STARLINK-1600           
1 46161U 20057AW  20253.25001157  .00023885  00000-0  23181-3 0  9999
2 46161  52.9977 333.6245 0001497  74.0433 233.2309 15.66240563  1828
STARLINK-1603           
1 46162U 20057AX  20253.25001157  .00022312  00000-0  21680-3 0  9996
2 46162  52.9996 333.5938 0000945  34.8007 288.2430 15.66255955  1776
STARLINK-1610           
1 46163U 20057AY  20253.25001157  .00022615  00000-0  21939-3 0  9990
2 46163  52.9997 333.5886 0001373  71.8162 256.5215 15.66287859  1776
STARLINK-1612           
1 46164U 20057AZ  20253.25001157  .00022401  00000-0  21763-3 0  9999
2 46164  52.9993 333.5792 0001262 328.7259   2.0245 15.66258015  1776
STARLINK-1613           
1 46165U 20057BA  20253.50001157 -.00105492  00000-0 -11578-2 0  9994
2 46165  53.0013 332.7499 0001424  57.3139  50.4330 15.62827921  4127
STARLINK-1615           
1 46166U 20057BB  20253.25001157 -.01097275  00000-0 -14512-1 0  9997
2 46166  52.9978 333.9961 0001520  48.9298  96.7426 15.60311524  1820
STARLINK-1626           
1 46167U 20057BC  20253.25001157  .00027640  00000-0  30662-3 0  9990
2 46167  52.9994 333.9637 0001608 314.5553 189.7265 15.62756437  1778
STARLINK-1627           
1 46168U 20057BD  20253.50001157 -.00109471  00000-0 -12034-2 0  9996
2 46168  52.9994 332.7317 0001920 307.2224 167.6732 15.62802400  4120
STARLINK-1628           
1 46169U 20057BE  20253.50001157  .00000581  00000-0  12180-4 0  9991
2 46169  53.0011 332.7227 0001304  50.9819  63.0900 15.62759837  4122
STARLINK-1632           
1 46170U 20057BF  20253.25001157 -.00038422  00000-0 -41591-3 0  9999
2 46170  52.9998 333.9554 0001181  57.1276  93.0302 15.62743284  1777
STARLINK-1633           
1 46171U 20057BG  20253.25001157  .00024324  00000-0  23590-3 0  9993
2 46171  52.9980 333.6341 0001440  67.2860 235.0450 15.66246831  1827
